[{"OBJECT_NAME":"OBJECT G","OBJECT_ID":"2024-092G","EPOCH":"2026-03-09T22:11:03.729408","MEAN_MOTION":14.31801198,"ECCENTRICITY":0.00127592,"INCLINATION":98.655,"RA_OF_ASC_NODE":188.1467,"ARG_OF_PERICENTER":137.1835,"MEAN_ANOMALY":223.0344,"EPHEMERIS_TYPE":0,"CLASSIFICATION_TYPE":"U","NORAD_CAT_ID":59779,"ELEMENT_SET_NO":999,"REV_AT_EPOCH":9469,"BSTAR":0.00013020254,"MEAN_MOTION_DOT":3.04e-6,"MEAN_MOTION_DDOT":0},{"OBJECT_NAME":"FENGYUN 1C DEB","OBJECT_ID":"1999-025ALH","EPOCH":"2026-03-09T21:52:47.183808","MEAN_MOTION":14.09013075,"ECCENTRICITY":0.01079999,"INCLINATION":98.7845,"RA_OF_ASC_NODE":62.357,"ARG_OF_PERICENTER":304.0297,"MEAN_ANOMALY":119.0671,"EPHEMERIS_TYPE":0,"CLASSIFICATION_TYPE":"U","NORAD_CAT_ID":30567,"ELEMENT_SET_NO":999,"REV_AT_EPOCH":98001,"BSTAR":0.00041625011,"MEAN_MOTION_DOT":7.17e-6,"MEAN_MOTION_DDOT":0}]
